COSMOS 1408 DEB         
1 49784U 82092JA  23258.73960554  .00129453  00000+0  12738-2 0  9998
2 49784  82.5590 167.3392 0015284 169.1252 191.0341 15.65421715102436
COSMOS 1408 DEB         
1 49789U 82092JF  23258.31018242  .00022189  00000+0  72851-3 0  9996
2 49789  82.6089 191.9392 0071425 237.7297 121.7010 15.28946195100836
COSMOS 1408 DEB         
1 49828U 82092KK  23258.77510210  .00105636  00000+0  10946-2 0  9997
2 49828  82.5664 168.0979 0020015 137.5326 222.7486 15.64074921100516
COSMOS 1408 DEB         
1 49840U 82092KX  23258.26521832  .00041011  00000+0  15306-2 0  9998
2 49840  82.4888 188.4289 0094369 320.5332  38.9054 15.23049146 98656
COSMOS 1408 DEB         
1 49844U 82092LB  23258.76966876  .00037606  00000+0  62932-3 0  9991
2 49844  82.5690 168.4283 0011576 166.1042 194.0532 15.51632752100386
COSMOS 1408 DEB         
1 49892U 82092NB  23258.74654884  .00067341  00000+0  83562-3 0  9996
2 49892  82.5666 165.7244 0011104 231.0398 128.9870 15.59695480102391
COSMOS 1408 DEB         
1 49981U 82092PY  23258.77526535  .00088836  00000+0  10757-2 0  9996
2 49981  82.5479 167.6577 0016834 158.2197 201.9779 15.60176755100348
COSMOS 1408 DEB         
1 49996U 82092QP  23258.25979412  .00069890  00000+0  19898-2 0  9995
2 49996  82.6482 198.8341 0073554 301.8921  57.5178 15.33107008 99987
COSMOS 1408 DEB         
1 50010U 82092QW  23258.71461628  .00053742  00000+0  82835-3 0  9991
2 50010  82.5544 170.3998 0020177 176.7810 183.3577 15.53714062100436
COSMOS 1408 DEB         
1 50014U 82092RA  23258.50330717  .00041341  00000+0  10166-2 0  9995
2 50014  82.5676 184.2244 0060594 214.0715 145.6636 15.38512100 99594
COSMOS 1408 DEB         
1 50020U 82092RG  23258.49820968  .00029652  00000+0  54553-3 0  9992
2 50020  82.6281 173.1359 0005979 183.1032 177.0182 15.49023023100481
COSMOS 1408 DEB         
1 50027U 82092RP  23258.77371334  .00178720  00000+0  20069-2 0  9993
2 50027  82.3705 165.9986 0033683 221.3828 138.4877 15.61342315 99517
COSMOS 1408 DEB         
1 50032U 82092RU  23258.49238645  .00004162  00000+0  12018-3 0  9999
2 50032  82.5709 171.0809 0017731 286.9316  72.9983 15.35205321 99938
COSMOS 1408 DEB         
1 50035U 82092RX  23258.26501742  .00085997  00000+0  17002-2 0  9990
2 50035  82.6040 189.4504 0063591 212.8217 146.9076 15.44567158101532
COSMOS 1408 DEB         
1 50049U 82092SM  23258.33663130  .00371078  00000+0  76618-2 0  9999
2 50049  82.4463 208.1791 0104172  43.2534 317.6830 15.38981908 99324
COSMOS 1408 DEB         
1 50051U 82092SP  23258.52208585  .00036030  00000+0  98229-3 0  9991
2 50051  82.5249 184.2112 0070263 236.6880 122.7623 15.34766632101281
