[{"OBJECT_NAME":"COSMOS 1408 DEB","OBJECT_ID":"1982-092JA","EPOCH":"2023-09-15T17:45:01.918656","MEAN_MOTION":15.65421715,"ECCENTRICITY":0.0015284,"INCLINATION":82.559,"RA_OF_ASC_NODE":167.3392,"ARG_OF_PERICENTER":169.1252,"MEAN_ANOMALY":191.0341,"EPHEMERIS_TYPE":0,"CLASSIFICATION_TYPE":"U","NORAD_CAT_ID":49784,"ELEMENT_SET_NO":999,"REV_AT_EPOCH":10243,"BSTAR":0.0012738,"MEAN_MOTION_DOT":0.00129453,"MEAN_MOTION_DDOT":0},{"OBJECT_NAME":"COSMOS 1408 DEB","OBJECT_ID":"1982-092JF","EPOCH":"2023-09-15T07:26:39.761088","MEAN_MOTION":15.28946195,"ECCENTRICITY":0.0071425,"INCLINATION":82.6089,"RA_OF_ASC_NODE":191.9392,"ARG_OF_PERICENTER":237.7297,"MEAN_ANOMALY":121.701,"EPHEMERIS_TYPE":0,"CLASSIFICATION_TYPE":"U","NORAD_CAT_ID":49789,"ELEMENT_SET_NO":999,"REV_AT_EPOCH":10083,"BSTAR":0.00072851,"MEAN_MOTION_DOT":0.00022189,"MEAN_MOTION_DDOT":0},{"OBJECT_NAME":"COSMOS 1408 DEB","OBJECT_ID":"1982-092KK","EPOCH":"2023-09-15T18:36:08.821440","MEAN_MOTION":15.64074921,"ECCENTRICITY":0.0020015,"INCLINATION":82.5664,"RA_OF_ASC_NODE":168.0979,"ARG_OF_PERICENTER":137.5326,"MEAN_ANOMALY":222.7486,"EPHEMERIS_TYPE":0,"CLASSIFICATION_TYPE":"U","NORAD_CAT_ID":49828,"ELEMENT_SET_NO":999,"REV_AT_EPOCH":10051,"BSTAR":0.0010946,"MEAN_MOTION_DOT":0.00105636,"MEAN_MOTION_DDOT":0},{"OBJECT_NAME":"COSMOS 1408 DEB","OBJECT_ID":"1982-092KX","EPOCH":"2023-09-15T06:21:54.862848","MEAN_MOTION":15.23049146,"ECCENTRICITY":0.0094369,"INCLINATION":82.4888,"RA_OF_ASC_NODE":188.4289,"ARG_OF_PERICENTER":320.5332,"MEAN_ANOMALY":38.9054,"EPHEMERIS_TYPE":0,"CLASSIFICATION_TYPE":"U","NORAD_CAT_ID":49840,"ELEMENT_SET_NO":999,"REV_AT_EPOCH":9865,"BSTAR":0.0015306,"MEAN_MOTION_DOT":0.00041011,"MEAN_MOTION_DDOT":0},{"OBJECT_NAME":"COSMOS 1408 DEB","OBJECT_ID":"1982-092LB","EPOCH":"2023-09-15T18:28:19.380864","MEAN_MOTION":15.51632752,"ECCENTRICITY":0.0011576,"INCLINATION":82.569,"RA_OF_ASC_NODE":168.4283,"ARG_OF_PERICENTER":166.1042,"MEAN_ANOMALY":194.0532,"EPHEMERIS_TYPE":0,"CLASSIFICATION_TYPE":"U","NORAD_CAT_ID":49844,"ELEMENT_SET_NO":999,"REV_AT_EPOCH":10038,"BSTAR":0.00062932,"MEAN_MOTION_DOT":0.00037606,"MEAN_MOTION_DDOT":0},{"OBJECT_NAME":"COSMOS 1408 DEB","OBJECT_ID":"1982-092NB","EPOCH":"2023-09-15T17:55:01.819776","MEAN_MOTION":15.5969548,"ECCENTRICITY":0.0011104,"INCLINATION":82.5666,"RA_OF_ASC_NODE":165.7244,"ARG_OF_PERICENTER":231.0398,"MEAN_ANOMALY":128.987,"EPHEMERIS_TYPE":0,"CLASSIFICATION_TYPE":"U","NORAD_CAT_ID":49892,"ELEMENT_SET_NO":999,"REV_AT_EPOCH":10239,"BSTAR":0.00083562,"MEAN_MOTION_DOT":0.00067341,"MEAN_MOTION_DDOT":0},{"OBJECT_NAME":"COSMOS 1408 DEB","OBJECT_ID":"1982-092PY","EPOCH":"2023-09-15T18:36:22.926240","MEAN_MOTION":15.60176755,"ECCENTRICITY":0.0016834,"INCLINATION":82.5479,"RA_OF_ASC_NODE":167.6577,"ARG_OF_PERICENTER":158.2197,"MEAN_ANOMALY":201.9779,"EPHEMERIS_TYPE":0,"CLASSIFICATION_TYPE":"U","NORAD_CAT_ID":49981,"ELEMENT_SET_NO":999,"REV_AT_EPOCH":10034,"BSTAR":0.0010757,"MEAN_MOTION_DOT":0.00088836,"MEAN_MOTION_DDOT":0},{"OBJECT_NAME":"COSMOS 1408 DEB","OBJECT_ID":"1982-092QP","EPOCH":"2023-09-15T06:14:06.211968","MEAN_MOTION":15.33107008,"ECCENTRICITY":0.0073554,"INCLINATION":82.6482,"RA_OF_ASC_NODE":198.8341,"ARG_OF_PERICENTER":301.8921,"MEAN_ANOMALY":57.5178,"EPHEMERIS_TYPE":0,"CLASSIFICATION_TYPE":"U","NORAD_CAT_ID":49996,"ELEMENT_SET_NO":999,"REV_AT_EPOCH":9998,"BSTAR":0.0019898,"MEAN_MOTION_DOT":0.0006989,"MEAN_MOTION_DDOT":0},{"OBJECT_NAME":"COSMOS 1408 DEB","OBJECT_ID":"1982-092QW","EPOCH":"2023-09-15T17:09:02.846592","MEAN_MOTION":15.53714062,"ECCENTRICITY":0.0020177,"INCLINATION":82.5544,"RA_OF_ASC_NODE":170.3998,"ARG_OF_PERICENTER":176.781,"MEAN_ANOMALY":183.3577,"EPHEMERIS_TYPE":0,"CLASSIFICATION_TYPE":"U","NORAD_CAT_ID":50010,"ELEMENT_SET_NO":999,"REV_AT_EPOCH":10043,"BSTAR":0.00082835,"MEAN_MOTION_DOT":0.00053742,"MEAN_MOTION_DDOT":0},{"OBJECT_NAME":"COSMOS 1408 DEB","OBJECT_ID":"1982-092RA","EPOCH":"2023-09-15T12:04:45.739488","MEAN_MOTION":15.385121,"ECCENTRICITY":0.0060594,"INCLINATION":82.5676,"RA_OF_ASC_NODE":184.2244,"ARG_OF_PERICENTER":214.0715,"MEAN_ANOMALY":145.6636,"EPHEMERIS_TYPE":0,"CLASSIFICATION_TYPE":"U","NORAD_CAT_ID":50014,"ELEMENT_SET_NO":999,"REV_AT_EPOCH":9959,"BSTAR":0.0010166,"MEAN_MOTION_DOT":0.00041341,"MEAN_MOTION_DDOT":0},{"OBJECT_NAME":"COSMOS 1408 DEB","OBJECT_ID":"1982-092RG","EPOCH":"2023-09-15T11:57:25.316352","MEAN_MOTION":15.49023023,"ECCENTRICITY":0.0005979,"INCLINATION":82.6281,"RA_OF_ASC_NODE":173.1359,"ARG_OF_PERICENTER":183.1032,"MEAN_ANOMALY":177.0182,"EPHEMERIS_TYPE":0,"CLASSIFICATION_TYPE":"U","NORAD_CAT_ID":50020,"ELEMENT_SET_NO":999,"REV_AT_EPOCH":10048,"BSTAR":0.00054553,"MEAN_MOTION_DOT":0.00029652,"MEAN_MOTION_DDOT":0},{"OBJECT_NAME":"COSMOS 1408 DEB","OBJECT_ID":"1982-092RP","EPOCH":"2023-09-15T18:34:08.832576","MEAN_MOTION":15.61342315,"ECCENTRICITY":0.0033683,"INCLINATION":82.3705,"RA_OF_ASC_NODE":165.9986,"ARG_OF_PERICENTER":221.3828,"MEAN_ANOMALY":138.4877,"EPHEMERIS_TYPE":0,"CLASSIFICATION_TYPE":"U","NORAD_CAT_ID":50027,"ELEMENT_SET_NO":999,"REV_AT_EPOCH":9951,"BSTAR":0.0020069,"MEAN_MOTION_DOT":0.0017872,"MEAN_MOTION_DDOT":0},{"OBJECT_NAME":"COSMOS 1408 DEB","OBJECT_ID":"1982-092RU","EPOCH":"2023-09-15T11:49:02.189280","MEAN_MOTION":15.35205321,"ECCENTRICITY":0.0017731,"INCLINATION":82.5709,"RA_OF_ASC_NODE":171.0809,"ARG_OF_PERICENTER":286.9316,"MEAN_ANOMALY":72.9983,"EPHEMERIS_TYPE":0,"CLASSIFICATION_TYPE":"U","NORAD_CAT_ID":50032,"ELEMENT_SET_NO":999,"REV_AT_EPOCH":9993,"BSTAR":0.00012018,"MEAN_MOTION_DOT":4.162e-5,"MEAN_MOTION_DDOT":0},{"OBJECT_NAME":"COSMOS 1408 DEB","OBJECT_ID":"1982-092RX","EPOCH":"2023-09-15T06:21:37.505088","MEAN_MOTION":15.44567158,"ECCENTRICITY":0.0063591,"INCLINATION":82.604,"RA_OF_ASC_NODE":189.4504,"ARG_OF_PERICENTER":212.8217,"MEAN_ANOMALY":146.9076,"EPHEMERIS_TYPE":0,"CLASSIFICATION_TYPE":"U","NORAD_CAT_ID":50035,"ELEMENT_SET_NO":999,"REV_AT_EPOCH":10153,"BSTAR":0.0017002,"MEAN_MOTION_DOT":0.00085997,"MEAN_MOTION_DDOT":0},{"OBJECT_NAME":"COSMOS 1408 DEB","OBJECT_ID":"1982-092SM","EPOCH":"2023-09-15T08:04:44.944320","MEAN_MOTION":15.38981908,"ECCENTRICITY":0.0104172,"INCLINATION":82.4463,"RA_OF_ASC_NODE":208.1791,"ARG_OF_PERICENTER":43.2534,"MEAN_ANOMALY":317.683,"EPHEMERIS_TYPE":0,"CLASSIFICATION_TYPE":"U","NORAD_CAT_ID":50049,"ELEMENT_SET_NO":999,"REV_AT_EPOCH":9932,"BSTAR":0.0076618,"MEAN_MOTION_DOT":0.00371078,"MEAN_MOTION_DDOT":0},{"OBJECT_NAME":"COSMOS 1408 DEB","OBJECT_ID":"1982-092SP","EPOCH":"2023-09-15T12:31:48.217440","MEAN_MOTION":15.34766632,"ECCENTRICITY":0.0070263,"INCLINATION":82.5249,"RA_OF_ASC_NODE":184.2112,"ARG_OF_PERICENTER":236.688,"MEAN_ANOMALY":122.7623,"EPHEMERIS_TYPE":0,"CLASSIFICATION_TYPE":"U","NORAD_CAT_ID":50051,"ELEMENT_SET_NO":999,"REV_AT_EPOCH":10128,"BSTAR":0.00098229,"MEAN_MOTION_DOT":0.0003603,"MEAN_MOTION_DDOT":0}]
